SL-3 R/B                
1 13403U 82079B   26055.47562328  .00006675  00000+0  26765-3 0  9994
2 13403  81.1462 208.6762 0024569 209.5791 150.4055 15.24573675375689
SL-14 R/B               
1 13553U 82092B   26055.38557701  .00000505  00000+0  53992-4 0  9993
2 13553  82.5712 153.8404 0019961 349.7380  79.1784 14.86651012326954
SL-3 R/B                
1 13819U 83010B   26055.36385469  .00016539  00000+0  33807-3 0  9993
2 13819  81.1047  18.5770 0018670  92.9180 267.4202 15.45819497355889
SL-3 R/B                
1 14208U 83075B   26055.48156515  .00011822  00000+0  31592-3 0  9997
2 14208  97.6143  59.5636 0019674 277.9765  81.9247 15.38053377328120
COSMOS 1536             
1 14699U 84013A   26055.45445058  .00007218  00000+0  29932-3 0  9993
2 14699  82.5449 121.0048 0013329 334.6087  25.4493 15.23630220270604
SL-14 R/B               
1 14820U 84027B   26055.49495196  .00000446  00000+0  48129-4 0  9992
2 14820  82.5381 257.3915 0018503  21.9105 338.2898 14.85961120245673
SL-8 R/B                
1 15483U 85006B   26055.10006262  .00000130  00000+0  51777-4 0  9999
2 15483  74.0444 286.1564 0019004 206.8120 266.8470 14.37775159152078
SL-12 R/B(2)            
1 15772U 85042D   26055.47578298  .00000018  00000+0  29480-4 0  9994
2 15772  71.1073 115.6477 0033937 149.6765 305.3457 14.21978563112510
SL-14 R/B               
1 15945U 85069B   26055.41640784  .00000563  00000+0  60956-4 0  9997
2 15945  82.5258  37.4146 0017440 233.6285 126.3324 14.86415437170862
SL-16 R/B               
1 16182U 85097B   26055.50274322  .00000275  00000+0  16198-3 0  9991
2 16182  71.0036 168.3140 0009755 274.7462 162.4912 14.16596772 85363
SL-14 R/B               
1 16496U 86006B   26055.53154270  .00000575  00000+0  58629-4 0  9991
2 16496  82.5239 272.1241 0075551 317.2244  42.3107 14.86795691147254
COSMOS 1743             
1 16719U 86034A   26055.47563016  .00034509  00000+0  46752-3 0  9992
2 16719  82.5312  87.6895 0003340   3.9454 356.1827 15.57512660178191
