CCSDS_OMM_VERS = 2.0
CREATION_DATE  = 
ORIGINATOR     = 

OBJECT_NAME    = SL-3 R/B
OBJECT_ID      = 1982-079B
CENTER_NAME    = EARTH
REF_FRAME      = TEME
TIME_SYSTEM    = UTC
MEAN_ELEMENT_THEORY = SGP/SGP4

EPOCH          = 2026-02-24T11:24:53.851392
MEAN_MOTION    = 15.24573675
ECCENTRICITY   = .0024569
INCLINATION    = 81.1462
RA_OF_ASC_NODE = 208.6762
ARG_OF_PERICENTER = 209.5791
MEAN_ANOMALY   = 150.4055

EPHEMERIS_TYPE = 0
CLASSIFICATION_TYPE = U
NORAD_CAT_ID   = 13403
ELEMENT_SET_NO = 999
REV_AT_EPOCH   = 37568
BSTAR          = .26765E-3
MEAN_MOTION_DOT = .6675E-4
MEAN_MOTION_DDOT = 0

CCSDS_OMM_VERS = 2.0
CREATION_DATE  = 
ORIGINATOR     = 

OBJECT_NAME    = SL-14 R/B
OBJECT_ID      = 1982-092B
CENTER_NAME    = EARTH
REF_FRAME      = TEME
TIME_SYSTEM    = UTC
MEAN_ELEMENT_THEORY = SGP/SGP4

EPOCH          = 2026-02-24T09:15:13.853664
MEAN_MOTION    = 14.86651012
ECCENTRICITY   = .0019961
INCLINATION    = 82.5712
RA_OF_ASC_NODE = 153.8404
ARG_OF_PERICENTER = 349.7380
MEAN_ANOMALY   = 79.1784

EPHEMERIS_TYPE = 0
CLASSIFICATION_TYPE = U
NORAD_CAT_ID   = 13553
ELEMENT_SET_NO = 999
REV_AT_EPOCH   = 32695
BSTAR          = .53992E-4
MEAN_MOTION_DOT = .505E-5
MEAN_MOTION_DDOT = 0

CCSDS_OMM_VERS = 2.0
CREATION_DATE  = 
ORIGINATOR     = 

OBJECT_NAME    = SL-3 R/B
OBJECT_ID      = 1983-010B
CENTER_NAME    = EARTH
REF_FRAME      = TEME
TIME_SYSTEM    = UTC
MEAN_ELEMENT_THEORY = SGP/SGP4

EPOCH          = 2026-02-24T08:43:57.045216
MEAN_MOTION    = 15.45819497
ECCENTRICITY   = .001867
INCLINATION    = 81.1047
RA_OF_ASC_NODE = 18.5770
ARG_OF_PERICENTER = 92.9180
MEAN_ANOMALY   = 267.4202

EPHEMERIS_TYPE = 0
CLASSIFICATION_TYPE = U
NORAD_CAT_ID   = 13819
ELEMENT_SET_NO = 999
REV_AT_EPOCH   = 35588
BSTAR          = .33807E-3
MEAN_MOTION_DOT = .16539E-3
MEAN_MOTION_DDOT = 0

CCSDS_OMM_VERS = 2.0
CREATION_DATE  = 
ORIGINATOR     = 

OBJECT_NAME    = SL-3 R/B
OBJECT_ID      = 1983-075B
CENTER_NAME    = EARTH
REF_FRAME      = TEME
TIME_SYSTEM    = UTC
MEAN_ELEMENT_THEORY = SGP/SGP4

EPOCH          = 2026-02-24T11:33:27.228960
MEAN_MOTION    = 15.38053377
ECCENTRICITY   = .0019674
INCLINATION    = 97.6143
RA_OF_ASC_NODE = 59.5636
ARG_OF_PERICENTER = 277.9765
MEAN_ANOMALY   = 81.9247

EPHEMERIS_TYPE = 0
CLASSIFICATION_TYPE = U
NORAD_CAT_ID   = 14208
ELEMENT_SET_NO = 999
REV_AT_EPOCH   = 32812
BSTAR          = .31592E-3
MEAN_MOTION_DOT = .11822E-3
MEAN_MOTION_DDOT = 0

CCSDS_OMM_VERS = 2.0
CREATION_DATE  = 
ORIGINATOR     = 

OBJECT_NAME    = COSMOS 1536
OBJECT_ID      = 1984-013A
CENTER_NAME    = EARTH
REF_FRAME      = TEME
TIME_SYSTEM    = UTC
MEAN_ELEMENT_THEORY = SGP/SGP4

EPOCH          = 2026-02-24T10:54:24.530112
MEAN_MOTION    = 15.23630220
ECCENTRICITY   = .0013329
INCLINATION    = 82.5449
RA_OF_ASC_NODE = 121.0048
ARG_OF_PERICENTER = 334.6087
MEAN_ANOMALY   = 25.4493

EPHEMERIS_TYPE = 0
CLASSIFICATION_TYPE = U
NORAD_CAT_ID   = 14699
ELEMENT_SET_NO = 999
REV_AT_EPOCH   = 27060
BSTAR          = .29932E-3
MEAN_MOTION_DOT = .7218E-4
MEAN_MOTION_DDOT = 0

CCSDS_OMM_VERS = 2.0
CREATION_DATE  = 
ORIGINATOR     = 

OBJECT_NAME    = SL-14 R/B
OBJECT_ID      = 1984-027B
CENTER_NAME    = EARTH
REF_FRAME      = TEME
TIME_SYSTEM    = UTC
MEAN_ELEMENT_THEORY = SGP/SGP4

EPOCH          = 2026-02-24T11:52:43.849344
MEAN_MOTION    = 14.85961120
ECCENTRICITY   = .0018503
INCLINATION    = 82.5381
RA_OF_ASC_NODE = 257.3915
ARG_OF_PERICENTER = 21.9105
MEAN_ANOMALY   = 338.2898

EPHEMERIS_TYPE = 0
CLASSIFICATION_TYPE = U
NORAD_CAT_ID   = 14820
ELEMENT_SET_NO = 999
REV_AT_EPOCH   = 24567
BSTAR          = .48129E-4
MEAN_MOTION_DOT = .446E-5
MEAN_MOTION_DDOT = 0

CCSDS_OMM_VERS = 2.0
CREATION_DATE  = 
ORIGINATOR     = 

OBJECT_NAME    = SL-8 R/B
OBJECT_ID      = 1985-006B
CENTER_NAME    = EARTH
REF_FRAME      = TEME
TIME_SYSTEM    = UTC
MEAN_ELEMENT_THEORY = SGP/SGP4

EPOCH          = 2026-02-24T02:24:05.410368
MEAN_MOTION    = 14.37775159
ECCENTRICITY   = .00190041
INCLINATION    = 74.0444
RA_OF_ASC_NODE = 286.1564
ARG_OF_PERICENTER = 206.8120
MEAN_ANOMALY   = 266.8470

EPHEMERIS_TYPE = 0
CLASSIFICATION_TYPE = U
NORAD_CAT_ID   = 15483
ELEMENT_SET_NO = 999
REV_AT_EPOCH   = 15207
BSTAR          = .51776756E-4
MEAN_MOTION_DOT = .13E-5
MEAN_MOTION_DDOT = 0

CCSDS_OMM_VERS = 2.0
CREATION_DATE  = 
ORIGINATOR     = 

OBJECT_NAME    = SL-12 R/B(2)
OBJECT_ID      = 1985-042D
CENTER_NAME    = EARTH
REF_FRAME      = TEME
TIME_SYSTEM    = UTC
MEAN_ELEMENT_THEORY = SGP/SGP4

EPOCH          = 2026-02-24T11:25:07.649472
MEAN_MOTION    = 14.21978563
ECCENTRICITY   = .0033937
INCLINATION    = 71.1073
RA_OF_ASC_NODE = 115.6477
ARG_OF_PERICENTER = 149.6765
MEAN_ANOMALY   = 305.3457

EPHEMERIS_TYPE = 0
CLASSIFICATION_TYPE = U
NORAD_CAT_ID   = 15772
ELEMENT_SET_NO = 999
REV_AT_EPOCH   = 11251
BSTAR          = .2948E-4
MEAN_MOTION_DOT = .18E-6
MEAN_MOTION_DDOT = 0

CCSDS_OMM_VERS = 2.0
CREATION_DATE  = 
ORIGINATOR     = 

OBJECT_NAME    = SL-14 R/B
OBJECT_ID      = 1985-069B
CENTER_NAME    = EARTH
REF_FRAME      = TEME
TIME_SYSTEM    = UTC
MEAN_ELEMENT_THEORY = SGP/SGP4

EPOCH          = 2026-02-24T09:59:37.637376
MEAN_MOTION    = 14.86415437
ECCENTRICITY   = .001744
INCLINATION    = 82.5258
RA_OF_ASC_NODE = 37.4146
ARG_OF_PERICENTER = 233.6285
MEAN_ANOMALY   = 126.3324

EPHEMERIS_TYPE = 0
CLASSIFICATION_TYPE = U
NORAD_CAT_ID   = 15945
ELEMENT_SET_NO = 999
REV_AT_EPOCH   = 17086
BSTAR          = .60956E-4
MEAN_MOTION_DOT = .563E-5
MEAN_MOTION_DDOT = 0

CCSDS_OMM_VERS = 2.0
CREATION_DATE  = 
ORIGINATOR     = 

OBJECT_NAME    = SL-16 R/B
OBJECT_ID      = 1985-097B
CENTER_NAME    = EARTH
REF_FRAME      = TEME
TIME_SYSTEM    = UTC
MEAN_ELEMENT_THEORY = SGP/SGP4

EPOCH          = 2026-02-24T12:03:57.014208
MEAN_MOTION    = 14.16596772
ECCENTRICITY   = .0009755
INCLINATION    = 71.0036
RA_OF_ASC_NODE = 168.3140
ARG_OF_PERICENTER = 274.7462
MEAN_ANOMALY   = 162.4912

EPHEMERIS_TYPE = 0
CLASSIFICATION_TYPE = U
NORAD_CAT_ID   = 16182
ELEMENT_SET_NO = 999
REV_AT_EPOCH   = 8536
BSTAR          = .16198E-3
MEAN_MOTION_DOT = .275E-5
MEAN_MOTION_DDOT = 0

CCSDS_OMM_VERS = 2.0
CREATION_DATE  = 
ORIGINATOR     = 

OBJECT_NAME    = SL-14 R/B
OBJECT_ID      = 1986-006B
CENTER_NAME    = EARTH
REF_FRAME      = TEME
TIME_SYSTEM    = UTC
MEAN_ELEMENT_THEORY = SGP/SGP4

EPOCH          = 2026-02-24T12:45:25.289280
MEAN_MOTION    = 14.86795691
ECCENTRICITY   = .0075551
INCLINATION    = 82.5239
RA_OF_ASC_NODE = 272.1241
ARG_OF_PERICENTER = 317.2244
MEAN_ANOMALY   = 42.3107

EPHEMERIS_TYPE = 0
CLASSIFICATION_TYPE = U
NORAD_CAT_ID   = 16496
ELEMENT_SET_NO = 999
REV_AT_EPOCH   = 14725
BSTAR          = .58629E-4
MEAN_MOTION_DOT = .575E-5
MEAN_MOTION_DDOT = 0

CCSDS_OMM_VERS = 2.0
CREATION_DATE  = 
ORIGINATOR     = 

OBJECT_NAME    = COSMOS 1743
OBJECT_ID      = 1986-034A
CENTER_NAME    = EARTH
REF_FRAME      = TEME
TIME_SYSTEM    = UTC
MEAN_ELEMENT_THEORY = SGP/SGP4

EPOCH          = 2026-02-24T11:24:54.445824
MEAN_MOTION    = 15.57512660
ECCENTRICITY   = .000334
INCLINATION    = 82.5312
RA_OF_ASC_NODE = 87.6895
ARG_OF_PERICENTER = 3.9454
MEAN_ANOMALY   = 356.1827

EPHEMERIS_TYPE = 0
CLASSIFICATION_TYPE = U
NORAD_CAT_ID   = 16719
ELEMENT_SET_NO = 999
REV_AT_EPOCH   = 17819
BSTAR          = .46752E-3
MEAN_MOTION_DOT = .34509E-3
MEAN_MOTION_DDOT = 0

